{
  "55668": {
    "noradId": "55668",
    "tle": [
      "1 55668C 23021AS  25352.18173611 -.00007876  00000+0 -65988-3 0  3524",
      "2 55668  70.0016  10.0262 0003284 275.4431  95.2165 14.98344945    10"
    ]
  },
  "55669": {
    "noradId": "55669",
    "tle": [
      "1 55669C 23021AT  25352.17548611 -.00016073  00000+0 -13467-2 0  3523",
      "2 55669  70.0017   9.9918 0003796 276.3137 105.7148 14.98352471    19"
    ]
  },
  "55670": {
    "noradId": "55670",
    "tle": [
      "1 55670C 23021AU  25352.17618056 -.00015574  00000+0 -13052-2 0  3521",
      "2 55670  70.0014   9.9150 0003172 271.7769 181.5726 14.98344814    10"
    ]
  },
  "55671": {
    "noradId": "55671",
    "tle": [
      "1 55671C 23021AV  25352.16229167 -.00015022  00000+0 -12588-2 0  3523",
      "2 55671  70.0015  10.2169 0003153 273.9591 215.9916 14.98348792    15"
    ]
  },
  "55673": {
    "noradId": "55673",
    "tle": [
      "1 55673C 23021AX  25352.17756944 -.00015745  00000+0 -13194-2 0  3520",
      "2 55673  70.0014   9.8855 0003120 272.3760 210.9651 14.98347553    12"
    ]
  },
  "55674": {
    "noradId": "55674",
    "tle": [
      "1 55674C 23021AY  25352.17756944 -.00018018  00000+0 -15100-2 0  3526",
      "2 55674  70.0015   9.8354 0003148 271.2290 257.1266 14.98348976    19"
    ]
  },
  "55675": {
    "noradId": "55675",
    "tle": [
      "1 55675C 23021AZ  25352.17826389 -.00007465  00000+0 -62560-3 0  3525",
      "2 55675  70.0015   9.7854 0003209 270.1691 306.9410 14.98335903    15"
    ]
  },
  "55676": {
    "noradId": "55676",
    "tle": [
      "1 55676C 23021BA  25352.18104167 -.00006230  00000+0 -52195-3 0  3522",
      "2 55676  70.0011 350.0053 0003230 272.1778 230.0901 14.98344833    11"
    ]
  },
  "55677": {
    "noradId": "55677",
    "tle": [
      "1 55677C 23021BB  25352.17618056 -.00017020  00000+0 -14262-2 0  3520",
      "2 55677  70.0012 349.9375 0003486 276.4849 268.0716 14.98350731    15"
    ]
  },
  "55741": {
    "noradId": "55741",
    "tle": [
      "1 55741C 23028A   25352.17965278  .00001745  00000+0  14622-3 0  3526",
      "2 55741  70.0017  90.0880 0003305 270.6081 241.3851 14.98331358    19"
    ]
  },
  "55742": {
    "noradId": "55742",
    "tle": [
      "1 55742C 23028B   25352.17687500  .00000993  00000+0  83220-4 0  3521",
      "2 55742  70.0016  90.1204 0003420 270.1941 204.3139 14.98331371    11"
    ]
  },
  "55743": {
    "noradId": "55743",
    "tle": [
      "1 55743C 23028C   25352.17756944 -.00006484  00000+0 -54313-3 0  3524",
      "2 55743  70.0016  90.1446 0003324 277.7787 177.8985 14.98354782    18"
    ]
  },
  "55744": {
    "noradId": "55744",
    "tle": [
      "1 55744C 23028D   25352.18173611 -.00000003  00000+0 -24358-6 0  3520",
      "2 55744  70.0015  90.1087 0003361 270.1110 229.7192 14.98332736    19"
    ]
  },
  "55746": {
    "noradId": "55746",
    "tle": [
      "1 55746C 23028F   25352.17687500 -.00001750  00000+0 -14667-3 0  3527",
      "2 55746  70.0017  89.9443 0003393 272.4238 359.6492 14.98335223    16"
    ]
  },
  "55747": {
    "noradId": "55747",
    "tle": [
      "1 55747C 23028G   25352.18034722  .00000431  00000+0  36090-4 0  3529",
      "2 55747  70.0017  90.0361 0003294 271.8288 288.9360 14.98329887    14"
    ]
  },
  "55748": {
    "noradId": "55748",
    "tle": [
      "1 55748C 23028H   25352.18173611  .00000267  00000+0  22342-4 0  3523",
      "2 55748  70.0017  90.0071 0003563 271.6340 319.1265 14.98330310    13"
    ]
  },
  "55750": {
    "noradId": "55750",
    "tle": [
      "1 55750C 23028K   25352.18104167  .00001496  00000+0  12537-3 0  3525",
      "2 55750  70.0017  89.9838 0003199 271.8036 337.7126 14.98332466    19"
    ]
  },
  "55751": {
    "noradId": "55751",
    "tle": [
      "1 55751C 23028L   25352.18034722 -.00000008  00000+0 -66517-6 0  3525",
      "2 55751  70.0017  90.0612 0003374 270.5840 267.6661 14.98332941    10"
    ]
  },
  "55752": {
    "noradId": "55752",
    "tle": [
      "1 55752C 23028M   25352.17826389  .00010680  00000+0  89517-3 0  3520",
      "2 55752  70.0016  89.8403 0003660 270.2171  99.4401 14.98310390    13"
    ]
  },
  "55753": {
    "noradId": "55753",
    "tle": [
      "1 55753C 23028N   25352.18034722 -.00006348  00000+0 -53170-3 0  3528",
      "2 55753  70.0017  89.9376 0003132 272.0570  17.7707 14.98358199    13"
    ]
  },
  "55754": {
    "noradId": "55754",
    "tle": [
      "1 55754C 23028P   25352.18034722 -.00002240  00000+0 -18770-3 0  3523",
      "2 55754  70.0015  89.8845 0003244 272.9740  62.8571 14.98333272    19"
    ]
  },
  "55755": {
    "noradId": "55755",
    "tle": [
      "1 55755C 23028Q   25352.18104167  .00360750  00000+0  14533-1 0  3527",
      "2 55755  70.0011  88.6723 0003004 271.2310  80.2018 15.24369789    19"
    ]
  },
  "55756": {
    "noradId": "55756",
    "tle": [
      "1 55756C 23028R   25352.17965278 -.00004568  00000+0 -38275-3 0  3520",
      "2 55756  70.0017  89.7855 0003340 272.2054 149.8991 14.98339109    18"
    ]
  },
  "55757": {
    "noradId": "55757",
    "tle": [
      "1 55757C 23028S   25352.17895833  .00009477  00000+0  79455-3 0  3527",
      "2 55757  70.0016  89.9132 0003300 268.5134  37.3559 14.98302081    11"
    ]
  },
  "55758": {
    "noradId": "55758",
    "tle": [
      "1 55758C 23028T   25352.17756944 -.00007990  00000+0 -66935-3 0  3526",
      "2 55758  70.0016  89.8662 0003682 263.6274  79.6804 14.98350001    10"
    ]
  },
  "55760": {
    "noradId": "55760",
    "tle": [
      "1 55760C 23028V   25352.17965278  .00007950  00000+0  66613-3 0  3528",
      "2 55760  70.0017  89.7613 0003691 272.2223 172.3104 14.98325077    18"
    ]
  },
  "55761": {
    "noradId": "55761",
    "tle": [
      "1 55761C 23028W   25352.17965278 -.00014044  00000+0 -11767-2 0  3522",
      "2 55761  70.0020  70.1604 0003478 269.4120 287.8974 14.98352443    18"
    ]
  },
  "55762": {
    "noradId": "55762",
    "tle": [
      "1 55762C 23028X   25352.17756944  .00000708  00000+0  59303-4 0  3521",
      "2 55762  70.0019  70.0860 0003205 275.8372 338.7088 14.98326776    10"
    ]
  },
  "55763": {
    "noradId": "55763",
    "tle": [
      "1 55763C 23028Y   25352.17756944 -.00003640  00000+0 -30500-3 0  3529",
      "2 55763  70.0016  89.8167 0003290 271.7849 116.5773 14.98337934    15"
    ]
  },
  "55764": {
    "noradId": "55764",
    "tle": [
      "1 55764C 23028Z   25352.17756944 -.00003094  00000+0 -25930-3 0  3524",
      "2 55764  70.0020  70.1120 0003331 271.7959 320.2182 14.98332633    10"
    ]
  },
  "55765": {
    "noradId": "55765",
    "tle": [
      "1 55765C 23028AA  25352.17687500 -.00001590  00000+0 -13326-3 0  3521",
      "2 55765  70.0021  70.1399 0003565 271.4413 294.3110 14.98331462    12"
    ]
  },
  "55766": {
    "noradId": "55766",
    "tle": [
      "1 55766C 23028AB  25352.17895833 -.00009377  00000+0 -78573-3 0  3528",
      "2 55766  70.0020  69.9811 0003399 273.0096  79.0291 14.98343783    14"
    ]
  },
  "55767": {
    "noradId": "55767",
    "tle": [
      "1 55767C 23028AC  25352.17687500 -.00020471  00000+0 -17151-2 0  3521",
      "2 55767  70.0021  70.1651 0003097 274.5542 268.6589 14.98361104    12"
    ]
  },
  "55769": {
    "noradId": "55769",
    "tle": [
      "1 55769C 23028AE  25352.17548611 -.00009863  00000+0 -82647-3 0  3527",
      "2 55769  70.0020  70.0411 0003148 270.9357  17.3714 14.98345339    18"
    ]
  },
  "55770": {
    "noradId": "55770",
    "tle": [
      "1 55770C 23028AF  25352.18243056 -.00027755  00000+0 -23248-2 0  3526",
      "2 55770  70.0020  69.9983 0003751 276.6836  71.5193 14.98377181    19"
    ]
  },
  "55771": {
    "noradId": "55771",
    "tle": [
      "1 55771C 23028AG  25352.18243056 -.00011845  00000+0 -99250-3 0  3527",
      "2 55771  70.0020  69.9468 0003319 274.0943 119.1730 14.98347165    14"
    ]
  },
  "55772": {
    "noradId": "55772",
    "tle": [
      "1 55772C 23028AH  25352.18034722 -.00003033  00000+0 -25416-3 0  3529",
      "2 55772  70.0021  69.8536 0003603 270.6340 200.5381 14.98337634    17"
    ]
  },
  "55773": {
    "noradId": "55773",
    "tle": [
      "1 55773C 23028AJ  25352.17687500  .00004553  00000+0  38157-3 0  3529",
      "2 55773  70.0019  70.0598 0003275 271.1059   2.1910 14.98321043    16"
    ]
  },
  "55774": {
    "noradId": "55774",
    "tle": [
      "1 55774C 23028AK  25352.18104167  .00004194  00000+0  35142-3 0  3526",
      "2 55774  70.0022  69.9255 0004555 269.2027 139.0211 14.98325317    15"
    ]
  },
  "55775": {
    "noradId": "55775",
    "tle": [
      "1 55775C 23028AL  25352.18034722 -.00020911  00000+0 -17522-2 0  3524",
      "2 55775  70.0021  69.9018 0003220 272.3087 154.7578 14.98355975    14"
    ]
  },
  "55777": {
    "noradId": "55777",
    "tle": [
      "1 55777C 23028AN  25352.17687500 -.00002780  00000+0 -23299-3 0  3526",
      "2 55777  70.0022  69.8607 0003591 270.9082 182.4472 14.98335283    11"
    ]
  },
  "55778": {
    "noradId": "55778",
    "tle": [
      "1 55778C 23028AP  25352.17479167  .00005571  00000+0  46679-3 0  3521",
      "2 55778  70.0021  69.8411 0003334 269.1783 195.3327 14.98327980    14"
    ]
  },
  "55779": {
    "noradId": "55779",
    "tle": [
      "1 55779C 23028AQ  25352.18173611 -.00016074  00000+0 -13469-2 0  3520",
      "2 55779  70.0024  49.7666 0003421 271.5813  29.2608 14.98350090    10"
    ]
  },
  "55780": {
    "noradId": "55780",
    "tle": [
      "1 55780C 23028AR  25352.18034722 -.00004749  00000+0 -39790-3 0  3523",
      "2 55780  70.0020  69.8018 0003157 271.3434 245.7393 14.98341422    10"
    ]
  },
  "55781": {
    "noradId": "55781",
    "tle": [
      "1 55781C 23028AS  25352.17826389 -.00001064  00000+0 -89122-4 0  3523",
      "2 55781  70.0022  69.9158 0003217 270.8372 167.4696 14.98337460    14"
    ]
  }
}